{
  "type": "FeatureCollection",
  "features": [
    {
      "type": "Feature",
      "properties": {
        "norad_id": 66468,
        "name": "STARLINK-35331",
        "group": "last-30-days",
        "lat": 3.754839927396756,
        "lon": 74.0948308434723,
        "alt_km": 443.24983051032996,
        "timestamp": "2025-12-12T22:42:11.305073+00:00",
        "meta_object_name": "STARLINK-35331",
        "meta_object_id": "2025-262N",
        "meta_epoch": "2025-12-12T06:00:00.999648",
        "meta_mean_motion": 15.40712845,
        "meta_eccentricity": 0.00016909,
        "meta_inclination": 43.0005,
        "meta_ra_of_asc_node": 74.0677,
        "meta_arg_of_pericenter": 279.1933,
        "meta_mean_anomaly": 181.7087,
        "meta_ephemeris_type": 0,
        "meta_classification_type": "U",
        "meta_norad_cat_id": 66468,
        "meta_element_set_no": 999,
        "meta_rev_at_epoch": 556,
        "meta_bstar": -0.00080539416,
        "meta_mean_motion_dot": -0.00033813,
        "meta_mean_motion_ddot": 0,
        "tle_line1": "1 66468U 25262N   25346.25001157 -.00033813  00000+0 -80539-3 0  9995",
        "tle_line2": "2 66468  43.0005  74.0677 0001690 279.1933 181.7087 15.40712845  5560"
      },
      "geometry": {
        "type": "Point",
        "coordinates": [
          74.0948308434723,
          3.754839927396756
        ]
      }
    },
    {
      "type": "Feature",
      "properties": {
        "norad_id": 66469,
        "name": "STARLINK-35451",
        "group": "last-30-days",
        "lat": 42.67106920452892,
        "lon": 151.44841457815645,
        "alt_km": 411.5514458931757,
        "timestamp": "2025-12-12T22:42:11.305084+00:00",
        "meta_object_name": "STARLINK-35451",
        "meta_object_id": "2025-262P",
        "meta_epoch": "2025-12-10T16:12:32.558112",
        "meta_mean_motion": 15.50219904,
        "meta_eccentricity": 4.921e-05,
        "meta_inclination": 43.0005,
        "meta_ra_of_asc_node": 83.1302,
        "meta_arg_of_pericenter": 334.6757,
        "meta_mean_anomaly": 25.4079,
        "meta_ephemeris_type": 0,
        "meta_classification_type": "U",
        "meta_norad_cat_id": 66469,
        "meta_element_set_no": 999,
        "meta_rev_at_epoch": 524,
        "meta_bstar": -0.0029160526,
        "meta_mean_motion_dot": -0.00165698,
        "meta_mean_motion_ddot": 0,
        "tle_line1": "1 66469U 25262P   25344.67537683 -.00165698  00000+0 -29161-2 0  9998",
        "tle_line2": "2 66469  43.0005  83.1302 0000492 334.6757  25.4079 15.50219904  5246"
      },
      "geometry": {
        "type": "Point",
        "coordinates": [
          151.44841457815645,
          42.67106920452892
        ]
      }
    },
    {
      "type": "Feature",
      "properties": {
        "norad_id": 66470,
        "name": "STARLINK-35655",
        "group": "last-30-days",
        "lat": 12.159744922482357,
        "lon": 83.39452101547263,
        "alt_km": 442.30207904940835,
        "timestamp": "2025-12-12T22:42:11.305095+00:00",
        "meta_object_name": "STARLINK-35655",
        "meta_object_id": "2025-262Q",
        "meta_epoch": "2025-12-12T06:00:00.999648",
        "meta_mean_motion": 15.40635553,
        "meta_eccentricity": 0.00016751,
        "meta_inclination": 43.0005,
        "meta_ra_of_asc_node": 74.0366,
        "meta_arg_of_pericenter": 267.3365,
        "meta_mean_anomaly": 206.056,
        "meta_ephemeris_type": 0,
        "meta_classification_type": "U",
        "meta_norad_cat_id": 66470,
        "meta_element_set_no": 999,
        "meta_rev_at_epoch": 556,
        "meta_bstar": 0.0017247068,
        "meta_mean_motion_dot": 0.00072272,
        "meta_mean_motion_ddot": 0,
        "tle_line1": "1 66470U 25262Q   25346.25001157  .00072272  00000+0  17247-2 0  9993",
        "tle_line2": "2 66470  43.0005  74.0366 0001675 267.3365 206.0560 15.40635553  5566"
      },
      "geometry": {
        "type": "Point",
        "coordinates": [
          83.39452101547263,
          12.159744922482357
        ]
      }
    },
    {
      "type": "Feature",
      "properties": {
        "norad_id": 66471,
        "name": "STARLINK-35569",
        "group": "last-30-days",
        "lat": 19.997171277416587,
        "lon": 92.98243283532166,
        "alt_km": 442.66805349749575,
        "timestamp": "2025-12-12T22:42:11.305106+00:00",
        "meta_object_name": "STARLINK-35569",
        "meta_object_id": "2025-262R",
        "meta_epoch": "2025-12-12T06:00:00.999648",
        "meta_mean_motion": 15.41021493,
        "meta_eccentricity": 0.00012325,
        "meta_inclination": 43.0007,
        "meta_ra_of_asc_node": 74.0066,
        "meta_arg_of_pericenter": 275.1544,
        "meta_mean_anomaly": 210.5129,
        "meta_ephemeris_type": 0,
        "meta_classification_type": "U",
        "meta_norad_cat_id": 66471,
        "meta_element_set_no": 999,
        "meta_rev_at_epoch": 556,
        "meta_bstar": -0.013868384,
        "meta_mean_motion_dot": -0.00545793,
        "meta_mean_motion_ddot": 0,
        "tle_line1": "1 66471U 25262R   25346.25001157 -.00545793  00000+0 -13868-1 0  9993",
        "tle_line2": "2 66471  43.0007  74.0066 0001232 275.1544 210.5129 15.41021493  5565"
      },
      "geometry": {
        "type": "Point",
        "coordinates": [
          92.98243283532166,
          19.997171277416587
        ]
      }
    },
    {
      "type": "Feature",
      "properties": {
        "norad_id": 66472,
        "name": "STARLINK-35567",
        "group": "last-30-days",
        "lat": 34.132555204118994,
        "lon": 116.60817923924412,
        "alt_km": 438.21190999383816,
        "timestamp": "2025-12-12T22:42:11.305117+00:00",
        "meta_object_name": "STARLINK-35567",
        "meta_object_id": "2025-262S",
        "meta_epoch": "2025-12-12T06:00:00.999648",
        "meta_mean_motion": 15.44124601,
        "meta_eccentricity": 0.00010706,
        "meta_inclination": 43.0003,
        "meta_ra_of_asc_node": 73.9581,
        "meta_arg_of_pericenter": 279.7549,
        "meta_mean_anomaly": 226.2144,
        "meta_ephemeris_type": 0,
        "meta_classification_type": "U",
        "meta_norad_cat_id": 66472,
        "meta_element_set_no": 999,
        "meta_rev_at_epoch": 556,
        "meta_bstar": -0.048714686,
        "meta_mean_motion_dot": -0.02031252,
        "meta_mean_motion_ddot": 0,
        "tle_line1": "1 66472U 25262S   25346.25001157 -.02031252  00000+0 -48715-1 0  9995",
        "tle_line2": "2 66472  43.0003  73.9581 0001070 279.7549 226.2144 15.44124601  5566"
      },
      "geometry": {
        "type": "Point",
        "coordinates": [
          116.60817923924412,
          34.132555204118994
        ]
      }
    },
    {
      "type": "Feature",
      "properties": {
        "norad_id": 66473,
        "name": "STARLINK-35568",
        "group": "last-30-days",
        "lat": 42.73461279550066,
        "lon": 167.32242814510036,
        "alt_km": 409.2993601309363,
        "timestamp": "2025-12-12T22:42:11.305128+00:00",
        "meta_object_name": "STARLINK-35568",
        "meta_object_id": "2025-262T",
        "meta_epoch": "2025-12-11T07:39:08.069760",
        "meta_mean_motion": 15.50526439,
        "meta_eccentricity": 0.00047596,
        "meta_inclination": 42.9998,
        "meta_ra_of_asc_node": 79.3576,
        "meta_arg_of_pericenter": 252.6139,
        "meta_mean_anomaly": 107.4201,
        "meta_ephemeris_type": 0,
        "meta_classification_type": "U",
        "meta_norad_cat_id": 66473,
        "meta_element_set_no": 999,
        "meta_rev_at_epoch": 534,
        "meta_bstar": 0.0038259112,
        "meta_mean_motion_dot": 0.00230458,
        "meta_mean_motion_ddot": 0,
        "tle_line1": "1 66473U 25262T   25345.31884340  .00230458  00000+0  38259-2 0  9993",
        "tle_line2": "2 66473  42.9998  79.3576 0004759 252.6139 107.4201 15.50526439  5346"
      },
      "geometry": {
        "type": "Point",
        "coordinates": [
          167.32242814510036,
          42.73461279550066
        ]
      }
    },
    {
      "type": "Feature",
      "properties": {
        "norad_id": 66474,
        "name": "STARLINK-35620",
        "group": "last-30-days",
        "lat": 42.36182028072702,
        "lon": 171.70659621677618,
        "alt_km": 407.0630930802954,
        "timestamp": "2025-12-12T22:42:11.305139+00:00",
        "meta_object_name": "STARLINK-35620",
        "meta_object_id": "2025-262U",
        "meta_epoch": "2025-12-11T07:38:34.341792",
        "meta_mean_motion": 15.50718811,
        "meta_eccentricity": 0.00019374,
        "meta_inclination": 43.0007,
        "meta_ra_of_asc_node": 79.3535,
        "meta_arg_of_pericenter": 275.2448,
        "meta_mean_anomaly": 84.8191,
        "meta_ephemeris_type": 0,
        "meta_classification_type": "U",
        "meta_norad_cat_id": 66474,
        "meta_element_set_no": 999,
        "meta_rev_at_epoch": 534,
        "meta_bstar": 0.0036220445,
        "meta_mean_motion_dot": 0.00219297,
        "meta_mean_motion_ddot": 0,
        "tle_line1": "1 66474U 25262U   25345.31845303  .00219297  00000+0  36220-2 0  9994",
        "tle_line2": "2 66474  43.0007  79.3535 0001937 275.2448  84.8191 15.50718811  5347"
      },
      "geometry": {
        "type": "Point",
        "coordinates": [
          171.70659621677618,
          42.36182028072702
        ]
      }
    }
  ]
}